BEIDOU-2 IGSO-5 (C10)   
1 37948U 11073A   26169.66754444 -.00000192  00000+0  00000+0 0  9998
2 37948  47.6748 271.5267 0113971 221.7702 105.6518  1.00272695 53143
BEIDOU-2 G5 (C05)       
1 38091U 12008A   26172.03983375  .00000053  00000+0  00000+0 0  9994
2 38091   3.5845  69.6825 0009015 273.5349 359.0277  1.00273091 52409
BEIDOU-2 M3 (C11)       
1 38250U 12018A   26170.87348603 -.00000087  00000+0  00000+0 0  9999
2 38250  55.7552 304.7847 0020163 273.6567  86.1052  1.86229605 95993
BEIDOU-2 M4 (C12)       
1 38251U 12018B   26172.41666900 -.00000098  00000+0  00000+0 0  9997
2 38251  55.6541 303.9461 0011367 274.9349  84.9285  1.86229230 96025
BEIDOU-2 M6 (C14)       
1 38775U 12050B   26171.05246878 -.00000069  00000+0  00000+0 0  9999
2 38775  56.5467  62.7995 0013616 357.8468   2.1878  1.86230944 93365
BEIDOU-2 G6 (C02)       
1 38953U 12059A   26170.70976387 -.00000183  00000+0  00000+0 0  9999
2 38953   4.4288  73.4979 0009632 324.3686 209.6174  1.00271500 49937
BEIDOU-3S IGSO-1S (C31) 
1 40549U 15019A   26170.99557403 -.00000176  00000+0  00000+0 0  9999
2 40549  49.1899 295.4270 0038863 191.0750 231.2891  1.00249609 41107
BEIDOU-3S M2S (C58)     
1 40748U 15037A   26170.47115793 -.00000084  00000+0  00000+0 0  9993
2 40748  54.8690 301.9679 0008432 258.8961 101.0039  1.86231851 74165
BEIDOU-3S M1S (C57)     
1 40749U 15037B   26167.45695291 -.00000070  00000+0  00000+0 0  9999
2 40749  54.8681 302.0590 0003448  61.6955 298.3263  1.86254753 74115
BEIDOU-3S IGSO-2S (C56) 
1 40938U 15053A   26170.70984358 -.00000143  00000+0  00000+0 0  9995
2 40938  49.2167 258.7515 0065583 192.2245 167.5336  1.00258902 39370
BEIDOU-2 IGSO-6 (C13)   
1 41434U 16021A   26172.09504345 -.00000159  00000+0  00000+0 0  9998
2 41434  60.2315  37.9988 0057439 231.3221 126.8353  1.00259258 37517
